ZHUHAI-1 02 (CAS-4B)    
1 42759U 17034B   23137.11478655  .00008146  00000+0  41615-3 0  9993
2 42759  43.0157 288.3590 0012042 263.0872  96.8606 15.16936427326911
ZHUHAI-1 01 (CAS-4A)    
1 42761U 17034D   23136.82856653  .00009768  00000+0  49602-3 0  9996
2 42761  43.0168 288.4789 0012819 263.3726 242.7557 15.16965187326888
MAX VALIER SAT          
1 42778U 17036P   23136.87481348  .00018829  00000+0  51330-3 0  9995
2 42778  97.1588 172.4843 0008141 197.6878 162.4085 15.37475942327912
RADFXSAT (FOX-1B)       
1 43017U 17073E   23136.93937272  .00004444  00000+0  31459-3 0  9990
2 43017  97.6354  22.5186 0234948 172.0569 188.4474 14.85674892296541
FOX-1D (AO-92)          
1 43137U 18004AC  23136.46295635  .00032437  00000+0  71141-3 0  9991
2 43137  97.3296 215.3606 0005126 238.4222 121.6526 15.43996129297411
DIWATA-2B               
1 43678U 18084H   23137.09912779  .00001440  00000+0  14310-3 0  9999
2 43678  98.0185 280.4526 0008224 263.4296  96.5986 14.93328666247628
ES'HAIL 2               
1 43700U 18090A   23136.82696017  .00000142  00000+0  00000+0 0  9991
2 43700   0.0124 277.8533 0001494 172.1736 107.7525  1.00273501 16376
FOX-1CLIFF (AO-95)      
1 43770U 18099N   23136.86616705  .00004568  00000+0  37586-3 0  9996
2 43770  97.5779 199.2488 0010543 229.4549 130.5757 14.99558105242919
ITASAT 1                
1 43786U 18099AE  23137.12895982  .00004429  00000+0  36721-3 0  9995
2 43786  97.5791 200.5370 0012182 216.9755 143.0630 14.99265287242990
JY1SAT (JO-97)          
1 43803U 18099AX  23137.10969728  .00004760  00000+0  38197-3 0  9990
2 43803  97.5699 200.4852 0011975 199.7407 160.3356 15.00488056243039
UWE-4                   
1 43880U 18111E   23136.17993788  .00005031  00000+0  38907-3 0  9990
2 43880  97.6373  41.8727 0014959 282.8259  77.1294 15.01853434239562
NEXUS (FO-99)           
1 43937U 19003F   23137.07427656  .00044555  00000+0  79650-3 0  9994
2 43937  97.0900 164.7314 0013236  40.9476 319.2767 15.49791203241221
JAISAT-1                
1 44419U 19038F   23136.69428645  .00022523  00000+0  80032-3 0  9991
2 44419  97.6723 117.4042 0017175  59.6440 300.6494 15.28887124213723
DUCHIFAT-3              
1 44854U 19089C   23136.80811421  .00009986  00000+0  67949-3 0  9991
2 44854  36.9636 278.7587 0008310  56.6652  92.6685 15.05804328188106
CAS-6 (TIANQIN 1)       
1 44881U 19093C   23137.11416883  .00001003  00000+0  13139-3 0  9998
2 44881  97.8617 216.0948 0014922 174.1043 186.0349 14.82467653184193
RS-44 & BREEZE-KM R/B   
1 44909U 19096E   23136.87122536  .00000029  00000+0  77401-4 0  9993
2 44909  82.5245   8.7579 0216322 260.1774  97.4843 12.79720524158157
BY70-2                  
1 45857U 20042B   23137.11544883  .00016027  00000+0  16892-2 0  9990
2 45857  97.9263 216.9347 0010633 113.8554 246.3778 14.89371168154914
SALSAT                  
1 46495U 20068K   23136.79309757  .00004361  00000+0  29121-3 0  9997
2 46495  97.7683  84.4746 0014340 221.9590 138.0540 15.07471800144343
RADFXSAT-2 (AO-109)     
1 47311U 21002C   23136.84806162  .00018265  00000+0  49652-3 0  9991
2 47311  60.6803 178.8809 0017557 157.4402 202.7468 15.37539846129462
UVSQ-SAT                
1 47438U 21006AB  23136.90756428  .00013185  00000+0  55422-3 0  9999
2 47438  97.3871 194.4818 0010399 183.2005 176.9167 15.23493980127886
DIY-1 (ARDUIQUBE)       
1 47963U 21022AH  23137.00068848  .00132486  00000+0  22771-2 0  9990
2 47963  97.5002  44.1008 0011468  77.0649 283.1882 15.50583296117740
XW-3 (CAS-9)            
1 50466U 21131B   23137.15603143  .00000571  00000+0  19985-3 0  9995
2 50466  98.5514 218.7982 0003524 218.1609 141.9329 14.38881416 72892
TEVEL-3                 
1 50988U 22002E   23137.13331261  .00015859  00000+0  65675-3 0  9991
2 50988  97.4354 204.3343 0006798 352.8970   7.2169 15.23986017 74038
TEVEL-8                 
1 50989U 22002F   23137.15073030  .00015522  00000+0  64412-3 0  9996
2 50989  97.4369 204.4076 0006789 351.5942   8.5180 15.23921733 74035
TEVEL-5                 
1 50998U 22002Q   23137.15983360  .00016151  00000+0  65332-3 0  9993
2 50998  97.4348 204.7089 0007817 344.8418  15.2584 15.24768092 74069
TEVEL-6                 
1 50999U 22002R   23137.02710157  .00015872  00000+0  64221-3 0  9997
2 50999  97.4346 204.5725 0007810 345.1051  14.9955 15.24762527 74046
TEVEL-1                 
1 51013U 22002AF  23137.14220153  .00016176  00000+0  67065-3 0  9997
2 51013  97.4348 204.2906 0006690 352.1788   7.9343 15.23943386 74039
TEVEL-7                 
1 51062U 22002CG  23137.15206155  .00015781  00000+0  65450-3 0  9995
2 51062  97.4365 204.3829 0006745 350.9984   9.1131 15.23937297 74035
TEVEL-4                 
1 51063U 22002CH  23137.15713460  .00015525  00000+0  64484-3 0  9990
2 51063  97.4365 204.3739 0006740 351.1590   8.9527 15.23890921 74035
TEVEL-2                 
1 51069U 22002CP  23137.13516361  .00016345  00000+0  67675-3 0  9991
2 51069  97.4351 204.3088 0006736 352.2904   7.8229 15.23986856 74039
GREENCUBE               
1 53106U 22080B   23130.54224914 -.00000003  00000+0  00000+0 0  9999
2 53106  70.1661 332.8054 0008272 193.3243 166.7199  6.42557278 19338
RS29S (SXC3-2110 CYCLO*)
1 53373U 22096D   23137.04015066  .00026368  00000+0  72431-3 0  9992
2 53373  97.4170  43.0164 0002015 101.7434 258.4036 15.37206238 42907
RS32S (SXC3-212 MONITO*)
1 53374U 22096E   23137.12338404  .00022717  00000+0  63937-3 0  9991
2 53374  97.4152  43.0252 0001748 116.8125 243.3298 15.36479193 42917
RS34S (SXC3-218 KUZBAS*)
1 53375U 22096F   23137.04250425  .00019209  00000+0  57112-3 0  9999
2 53375  97.4175  42.7106 0001701 116.9899 243.1518 15.34789879 42887
RS23S (SXC3-21 UTMN)    
1 53376U 22096G   23137.07535186  .00020080  00000+0  58762-3 0  9994
2 53376  97.4171  42.8143 0001848 106.5672 253.5774 15.35281757 42895
RS28S (SXC3-214 MIET-A*)
1 53377U 22096H   23137.04504735  .00016938  00000+0  50862-3 0  9998
2 53377  97.4178  42.7126 0001599 117.6762 242.4643 15.34504277 42884
RS26S (KAI-1)           
1 53378U 22096J   23137.12158467  .00015162  00000+0  47437-3 0  9997
2 53378  97.4193  42.6208 0001610 121.3053 238.8347 15.33222959 42884
RS19S (SXC3-219 ISOI)   
1 53381U 22096M   23137.13900523  .00016857  00000+0  49391-3 0  9993
2 53381  97.4169  43.0301 0004577 139.0131 221.1457 15.35270971 42918
RS21S (CUBESX-HSE-2)    
1 53383U 22096P   23137.11990307  .00019195  00000+0  55572-3 0  9998
2 53383  97.4173  43.0652 0005018 142.5609 217.5985 15.35618748 42917
RS30S (SXC3-217 SIREN)  
1 53384U 22096Q   23137.12307787  .00017167  00000+0  51806-3 0  9997
2 53384  97.4184  42.9176 0004973 141.6339 218.5258 15.34333229 42908
RS20S (GEOSCAN-EDELVEIS)
1 53385U 22096R   23137.03713709  .00026232  00000+0  68720-3 0  9999
2 53385  97.4163  43.4620 0005431 139.8388 220.3259 15.38663322 42961
RS33S (SXC3-215 VIZARD) 
1 53386U 22096S   23137.08508888  .00038270  00000+0  90255-3 0  9998
2 53386  97.4161  44.0050 0006089 139.6313 220.5387 15.41783214 42994
CAS-5A (FO-118)         
1 54684U 22167C   23137.13898686  .00010545  00000+0  59300-3 0  9994
2 54684  97.5574 274.9538 0014633  84.6115 275.6785 15.13369496 23985
